{
  "type": "FeatureCollection",
  "features": [
    {
      "type": "Feature",
      "properties": {
        "norad_id": 31990,
        "name": "FENGYUN 1C DEB",
        "group": "fengyun-1c-debris",
        "lat": -46.19638550053088,
        "lon": 31.08208784115105,
        "alt_km": 1235.8861605715701,
        "timestamp": "2025-12-25T19:00:39.636321+00:00",
        "meta_object_name": "FENGYUN 1C DEB",
        "meta_object_id": "1999-025CPT",
        "meta_epoch": "2025-12-22T08:11:24.407808",
        "meta_mean_motion": 13.5720727,
        "meta_eccentricity": 0.02604471,
        "meta_inclination": 99.1597,
        "meta_ra_of_asc_node": 18.1807,
        "meta_arg_of_pericenter": 160.0057,
        "meta_mean_anomaly": 220.2158,
        "meta_ephemeris_type": 0,
        "meta_classification_type": "U",
        "meta_norad_cat_id": 31990,
        "meta_element_set_no": 999,
        "meta_rev_at_epoch": 62902,
        "meta_bstar": 0.00026124298,
        "meta_mean_motion_dot": 1.93e-06,
        "meta_mean_motion_ddot": 0,
        "tle_line1": "1 31990U 99025CPT 25356.34125472  .00000193  00000+0  26124-3 0  9996",
        "tle_line2": "2 31990  99.1597  18.1807 0260447 160.0057 220.2158 13.57207270629024"
      },
      "geometry": {
        "type": "Point",
        "coordinates": [
          31.08208784115105,
          -46.19638550053088
        ]
      }
    },
    {
      "type": "Feature",
      "properties": {
        "norad_id": 31991,
        "name": "FENGYUN 1C DEB",
        "group": "fengyun-1c-debris",
        "lat": 13.140682419314725,
        "lon": 12.215185154774577,
        "alt_km": 1179.3950378386362,
        "timestamp": "2025-12-25T19:00:39.636331+00:00",
        "meta_object_name": "FENGYUN 1C DEB",
        "meta_object_id": "1999-025CPU",
        "meta_epoch": "2025-12-22T17:53:19.962816",
        "meta_mean_motion": 13.61281478,
        "meta_eccentricity": 0.02444249,
        "meta_inclination": 100.486,
        "meta_ra_of_asc_node": 186.4677,
        "meta_arg_of_pericenter": 28.7327,
        "meta_mean_anomaly": 332.7029,
        "meta_ephemeris_type": 0,
        "meta_classification_type": "U",
        "meta_norad_cat_id": 31991,
        "meta_element_set_no": 999,
        "meta_rev_at_epoch": 62223,
        "meta_bstar": 0.00015589041,
        "meta_mean_motion_dot": 9.4e-07,
        "meta_mean_motion_ddot": 0,
        "tle_line1": "1 31991U 99025CPU 25356.74536994  .00000094  00000+0  15589-3 0  9999",
        "tle_line2": "2 31991 100.4860 186.4677 0244424  28.7327 332.7029 13.61281478622234"
      },
      "geometry": {
        "type": "Point",
        "coordinates": [
          12.215185154774577,
          13.140682419314725
        ]
      }
    },
    {
      "type": "Feature",
      "properties": {
        "norad_id": 31992,
        "name": "FENGYUN 1C DEB",
        "group": "fengyun-1c-debris",
        "lat": 55.32361284622796,
        "lon": -55.35706560030601,
        "alt_km": 937.8789693937078,
        "timestamp": "2025-12-25T19:00:39.636341+00:00",
        "meta_object_name": "FENGYUN 1C DEB",
        "meta_object_id": "1999-025CPV",
        "meta_epoch": "2025-12-22T03:38:18.593376",
        "meta_mean_motion": 13.23012491,
        "meta_eccentricity": 0.05423471,
        "meta_inclination": 99.1671,
        "meta_ra_of_asc_node": 314.9253,
        "meta_arg_of_pericenter": 6.8292,
        "meta_mean_anomaly": 353.9851,
        "meta_ephemeris_type": 0,
        "meta_classification_type": "U",
        "meta_norad_cat_id": 31992,
        "meta_element_set_no": 999,
        "meta_rev_at_epoch": 53999,
        "meta_bstar": 0.0012055765,
        "meta_mean_motion_dot": 1.073e-05,
        "meta_mean_motion_ddot": 0,
        "tle_line1": "1 31992U 99025CPV 25356.15160409  .00001073  00000+0  12056-2 0  9992",
        "tle_line2": "2 31992  99.1671 314.9253 0542347   6.8292 353.9851 13.23012491539993"
      },
      "geometry": {
        "type": "Point",
        "coordinates": [
          -55.35706560030601,
          55.32361284622796
        ]
      }
    },
    {
      "type": "Feature",
      "properties": {
        "norad_id": 31993,
        "name": "FENGYUN 1C DEB",
        "group": "fengyun-1c-debris",
        "lat": -63.00534455978181,
        "lon": -10.678708065012847,
        "alt_km": 1474.4393851447649,
        "timestamp": "2025-12-25T19:00:39.636352+00:00",
        "meta_object_name": "FENGYUN 1C DEB",
        "meta_object_id": "1999-025CPW",
        "meta_epoch": "2025-12-24T16:13:16.260096",
        "meta_mean_motion": 13.27487792,
        "meta_eccentricity": 0.04232112,
        "meta_inclination": 99.2398,
        "meta_ra_of_asc_node": 329.6876,
        "meta_arg_of_pericenter": 106.0235,
        "meta_mean_anomaly": 258.7919,
        "meta_ephemeris_type": 0,
        "meta_classification_type": "U",
        "meta_norad_cat_id": 31993,
        "meta_element_set_no": 999,
        "meta_rev_at_epoch": 89101,
        "meta_bstar": 0.0023117647,
        "meta_mean_motion_dot": 1.659e-05,
        "meta_mean_motion_ddot": 0,
        "tle_line1": "1 31993U 99025CPW 25358.67588264  .00001659  00000+0  23118-2 0  9996",
        "tle_line2": "2 31993  99.2398 329.6876 0423211 106.0235 258.7919 13.27487792891018"
      },
      "geometry": {
        "type": "Point",
        "coordinates": [
          -10.678708065012847,
          -63.00534455978181
        ]
      }
    },
    {
      "type": "Feature",
      "properties": {
        "norad_id": 31994,
        "name": "FENGYUN 1C DEB",
        "group": "fengyun-1c-debris",
        "lat": 78.17374145031765,
        "lon": -141.12828911649174,
        "alt_km": 785.1090386118249,
        "timestamp": "2025-12-25T19:00:39.636362+00:00",
        "meta_object_name": "FENGYUN 1C DEB",
        "meta_object_id": "1999-025CPX",
        "meta_epoch": "2025-12-18T05:54:00.814464",
        "meta_mean_motion": 13.95758705,
        "meta_eccentricity": 0.01625274,
        "meta_inclination": 98.539,
        "meta_ra_of_asc_node": 346.0233,
        "meta_arg_of_pericenter": 130.8306,
        "meta_mean_anomaly": 230.708,
        "meta_ephemeris_type": 0,
        "meta_classification_type": "U",
        "meta_norad_cat_id": 31994,
        "meta_element_set_no": 999,
        "meta_rev_at_epoch": 56873,
        "meta_bstar": -7.0824309e-05,
        "meta_mean_motion_dot": -1.46e-06,
        "meta_mean_motion_ddot": 0,
        "tle_line1": "1 31994U 99025CPX 25352.24584276 -.00000146  00000+0 -70824-4 0  9993",
        "tle_line2": "2 31994  98.5390 346.0233 0162527 130.8306 230.7080 13.95758705568736"
      },
      "geometry": {
        "type": "Point",
        "coordinates": [
          -141.12828911649174,
          78.17374145031765
        ]
      }
    },
    {
      "type": "Feature",
      "properties": {
        "norad_id": 31997,
        "name": "FENGYUN 1C DEB",
        "group": "fengyun-1c-debris",
        "lat": -43.906618415087344,
        "lon": -145.43507868110908,
        "alt_km": 835.3340812276101,
        "timestamp": "2025-12-25T19:00:39.636373+00:00",
        "meta_object_name": "FENGYUN 1C DEB",
        "meta_object_id": "1999-025CQA",
        "meta_epoch": "2025-12-20T23:11:18.732192",
        "meta_mean_motion": 13.60709267,
        "meta_eccentricity": 0.02907852,
        "meta_inclination": 102.5098,
        "meta_ra_of_asc_node": 40.7426,
        "meta_arg_of_pericenter": 255.2897,
        "meta_mean_anomaly": 101.584,
        "meta_ephemeris_type": 0,
        "meta_classification_type": "U",
        "meta_norad_cat_id": 31997,
        "meta_element_set_no": 999,
        "meta_rev_at_epoch": 61795,
        "meta_bstar": 0.0020865272,
        "meta_mean_motion_dot": 2.017e-05,
        "meta_mean_motion_ddot": 0,
        "tle_line1": "1 31997U 99025CQA 25354.96618903  .00002017  00000+0  20865-2 0  9997",
        "tle_line2": "2 31997 102.5098  40.7426 0290785 255.2897 101.5840 13.60709267617956"
      },
      "geometry": {
        "type": "Point",
        "coordinates": [
          -145.43507868110908,
          -43.906618415087344
        ]
      }
    },
    {
      "type": "Feature",
      "properties": {
        "norad_id": 32086,
        "name": "FENGYUN 1C DEB",
        "group": "fengyun-1c-debris",
        "lat": 41.33342161156573,
        "lon": -117.52296942114381,
        "alt_km": 819.7467586205539,
        "timestamp": "2025-12-25T19:00:39.636383+00:00",
        "meta_object_name": "FENGYUN 1C DEB",
        "meta_object_id": "1999-025CQC",
        "meta_epoch": "2025-12-23T20:45:31.853664",
        "meta_mean_motion": 13.68944984,
        "meta_eccentricity": 0.029869,
        "meta_inclination": 99.2686,
        "meta_ra_of_asc_node": 52.364,
        "meta_arg_of_pericenter": 106.7235,
        "meta_mean_anomaly": 256.6913,
        "meta_ephemeris_type": 0,
        "meta_classification_type": "U",
        "meta_norad_cat_id": 32086,
        "meta_element_set_no": 999,
        "meta_rev_at_epoch": 61933,
        "meta_bstar": 0.0021459,
        "meta_mean_motion_dot": 2.491e-05,
        "meta_mean_motion_ddot": 0,
        "tle_line1": "1 32086U 99025CQC 25357.86495201  .00002491  00000+0  21459-2 0  9999",
        "tle_line2": "2 32086  99.2686  52.3640 0298690 106.7235 256.6913 13.68944984619339"
      },
      "geometry": {
        "type": "Point",
        "coordinates": [
          -117.52296942114381,
          41.33342161156573
        ]
      }
    }
  ]
}